[Satellite]
VERSION=1.1
NAME=IRIDIUM 65 [+]
NICKNAME=IRIDIUM 65 [+]
TLE1=1 25288U 98021D   18020.84062623  .00000177  00000-0  56242-4 0  9995
TLE2=2 25288  86.3988 132.9271 0002061  93.6658 266.4774 14.34215484 35932
